YAOGAN-43 01G           
1 60464U 24148G   26068.44348481  .00010133  00000+0  35873-3 0  9993
2 60464  35.0006  62.0013 0007382 306.3543  53.6492 15.28332833 87004
STARLINK-33817          
1 63583U 25076Q   26068.09636431  .00036914  00000+0  13443-2 0  9998
2 63583  43.0025 324.7015 0001370 281.3058  78.7640 15.27578190 51734
